[{"OBJECT_NAME":"SKYSAT-C6","OBJECT_ID":"2017-068F","EPOCH":"2026-03-09T21:33:49.392576","MEAN_MOTION":15.32504544,"ECCENTRICITY":0.00036369,"INCLINATION":97.44,"RA_OF_ASC_NODE":205.7173,"ARG_OF_PERICENTER":127.5085,"MEAN_ANOMALY":232.6488,"EPHEMERIS_TYPE":0,"CLASSIFICATION_TYPE":"U","NORAD_CAT_ID":42992,"ELEMENT_SET_NO":999,"REV_AT_EPOCH":46710,"BSTAR":0.00039699196,"MEAN_MOTION_DOT":0.0001239,"MEAN_MOTION_DDOT":0},{"OBJECT_NAME":"STARLINK-34791","OBJECT_ID":"2025-224K","EPOCH":"2026-03-09T23:27:49.248576","MEAN_MOTION":15.30234471,"ECCENTRICITY":0.00013171,"INCLINATION":53.1612,"RA_OF_ASC_NODE":10.3449,"ARG_OF_PERICENTER":98.5779,"MEAN_ANOMALY":261.5371,"EPHEMERIS_TYPE":0,"CLASSIFICATION_TYPE":"U","NORAD_CAT_ID":65891,"ELEMENT_SET_NO":999,"REV_AT_EPOCH":2491,"BSTAR":0.0010465324,"MEAN_MOTION_DOT":0.00030798,"MEAN_MOTION_DDOT":0}]
